start=new Date('2022-06-17T00:00:00.000Z').valueOf();
sats=[{"MEAN_MOTION":"15.08841669","BSTAR":"-0.00004414700000","PERIOD":"95.437","EPOCH":"2022-06-15T20:42:36.477216","FILE":"3496999","APOAPSIS":"541.286","COUNTRY_CODE":"US","ARG_OF_PERICENTER":"33.6120","MEAN_ANOMALY":"326.5014","MEAN_ELEMENT_THEORY":"SGP4","NORAD_CAT_ID":"49421","EPHEMERIS_TYPE":"0","OBJECT_TYPE":"PAYLOAD","REF_FRAME":"TEME","GP_ID":"206238855","PERIAPSIS":"538.195","OBJECT_ID":"2021-104P","ECCENTRICITY":"0.00022340","MEAN_MOTION_DDOT":"0.0000000000000","TLE_LINE2":"2 49421  53.2176 227.0895 0002234  33.6120 326.5014 15.08841669 32885","SITE":"AFETR","RCS_SIZE":"LARGE","MEAN_MOTION_DOT":"-0.00000991","REV_AT_EPOCH":"3288","RA_OF_ASC_NODE":"227.0895","INCLINATION":"53.2176","CENTER_NAME":"EARTH","SEMIMAJOR_AXIS":"6917.875","CLASSIFICATION_TYPE":"U","OBJECT_NAME":"STARLINK-3112","TLE_LINE1":"1 49421U 21104P   22166.86292219 -.00000991  00000-0 -44147-4 0  9999","TIME_SYSTEM":"UTC","LAUNCH_DATE":"2021-11-13","ELEMENT_SET_NO":"999","DECAY_DATE":null},{"ELEMENT_SET_NO":"999","DECAY_DATE":null,"TLE_LINE1":"1 49422U 21104Q   22166.94019461 -.00000699  00000-0 -25792-4 0  9995","TIME_SYSTEM":"UTC","LAUNCH_DATE":"2021-11-13","CLASSIFICATION_TYPE":"U","OBJECT_NAME":"STARLINK-3161","CENTER_NAME":"EARTH","SEMIMAJOR_AXIS":"6917.863","RA_OF_ASC_NODE":"226.7428","INCLINATION":"53.2178","REV_AT_EPOCH":"3289","MEAN_MOTION_DOT":"-0.00000699","RCS_SIZE":"LARGE","SITE":"AFETR","TLE_LINE2":"2 49422  53.2178 226.7428 0002820  27.2664 332.8476 15.08845614 32896","ECCENTRICITY":"0.00028200","MEAN_MOTION_DDOT":"0.0000000000000","OBJECT_TYPE":"PAYLOAD","REF_FRAME":"TEME","GP_ID":"206290356","PERIAPSIS":"537.777","OBJECT_ID":"2021-104Q","MEAN_ELEMENT_THEORY":"SGP4","MEAN_ANOMALY":"332.8476","ARG_OF_PERICENTER":"27.2664","NORAD_CAT_ID":"49422","EPHEMERIS_TYPE":"0","FILE":"3497002","APOAPSIS":"541.679","COUNTRY_CODE":"US","BSTAR":"-0.00002579200000","PERIOD":"95.437","EPOCH":"2022-06-15T22:33:52.814304","MEAN_MOTION":"15.08845614"},{"RA_OF_ASC_NODE":"228.9073","INCLINATION":"53.2191","REV_AT_EPOCH":"3282","MEAN_MOTION_DOT":"0.00000016","RCS_SIZE":"LARGE","SITE":"AFETR","ELEMENT_SET_NO":"999","DECAY_DATE":null,"TLE_LINE1":"1 49423U 21104R   22166.45812383  .00000016  00000-0  19101-4 0  9994","LAUNCH_DATE":"2021-11-13","TIME_SYSTEM":"UTC","CLASSIFICATION_TYPE":"U","OBJECT_NAME":"STARLINK-3149","CENTER_NAME":"EARTH","SEMIMAJOR_AXIS":"6917.905","FILE":"3496794","APOAPSIS":"541.559","COUNTRY_CODE":"US","BSTAR":"0.00001910100000","PERIOD":"95.438","EPOCH":"2022-06-15T10:59:41.898912","MEAN_MOTION":"15.08831819","TLE_LINE2":"2 49423  53.2191 228.9073 0002586  27.8801 332.2330 15.08831819 32828","ECCENTRICITY":"0.00025860","MEAN_MOTION_DDOT":"0.0000000000000","OBJECT_TYPE":"PAYLOAD","REF_FRAME":"TEME","GP_ID":"206209659","OBJECT_ID":"2021-104R","PERIAPSIS":"537.981","ARG_OF_PERICENTER":"27.8801","MEAN_ANOMALY":"332.2330","MEAN_ELEMENT_THEORY":"SGP4","NORAD_CAT_ID":"49423","EPHEMERIS_TYPE":"0"},{"REF_FRAME":"TEME","OBJECT_TYPE":"PAYLOAD","OBJECT_ID":"2021-104S","PERIAPSIS":"537.929","GP_ID":"206289861","MEAN_ANOMALY":"329.2936","ARG_OF_PERICENTER":"30.8213","MEAN_ELEMENT_THEORY":"SGP4","EPHEMERIS_TYPE":"0","NORAD_CAT_ID":"49424","TLE_LINE2":"2 49424  53.2180 226.4767 0002680  30.8213 329.2936 15.08827575 32907","ECCENTRICITY":"0.00026800","MEAN_MOTION_DDOT":"0.0000000000000","MEAN_MOTION":"15.08827575","COUNTRY_CODE":"US","FILE":"3497002","APOAPSIS":"541.637","BSTAR":"-0.00004559800000","EPOCH":"2022-06-15T23:58:41.457216","PERIOD":"95.438","CLASSIFICATION_TYPE":"U","OBJECT_NAME":"STARLINK-3135","CENTER_NAME":"EARTH","SEMIMAJOR_AXIS":"6917.918","DECAY_DATE":null,"ELEMENT_SET_NO":"999","TLE_LINE1":"1 49424U 21104S   22166.99909094 -.00001014  00000-0 -45598-4 0  9990","LAUNCH_DATE":"2021-11-13","TIME_SYSTEM":"UTC","RCS_SIZE":"LARGE","SITE":"AFETR","RA_OF_ASC_NODE":"226.4767","INCLINATION":"53.2180","MEAN_MOTION_DOT":"-0.00001014","REV_AT_EPOCH":"3290"},{"CENTER_NAME":"EARTH","SEMIMAJOR_AXIS":"6917.883","CLASSIFICATION_TYPE":"U","OBJECT_NAME":"STARLINK-3139","TLE_LINE1":"1 49425U 21104T   22166.45443881  .00000050  00000-0  21242-4 0  9996","TIME_SYSTEM":"UTC","LAUNCH_DATE":"2021-11-13","DECAY_DATE":null,"ELEMENT_SET_NO":"999","SITE":"AFETR","RCS_SIZE":"LARGE","REV_AT_EPOCH":"3283","MEAN_MOTION_DOT":"0.00000050","RA_OF_ASC_NODE":"228.9236","INCLINATION":"53.2185","ARG_OF_PERICENTER":"43.1712","MEAN_ANOMALY":"316.9455","MEAN_ELEMENT_THEORY":"SGP4","EPHEMERIS_TYPE":"0","NORAD_CAT_ID":"49425","REF_FRAME":"TEME","OBJECT_TYPE":"PAYLOAD","OBJECT_ID":"2021-104T","PERIAPSIS":"538.202","GP_ID":"206208667","ECCENTRICITY":"0.00022340","MEAN_MOTION_DDOT":"0.0000000000000","TLE_LINE2":"2 49425  53.2185 228.9236 0002234  43.1712 316.9455 15.08839282 32836","MEAN_MOTION":"15.08839282","BSTAR":"0.00002124200000","EPOCH":"2022-06-15T10:54:23.513184","PERIOD":"95.438","COUNTRY_CODE":"US","FILE":"3496794","APOAPSIS":"541.293"},{"CLASSIFICATION_TYPE":"U","OBJECT_NAME":"STARLINK-3114","CENTER_NAME":"EARTH","SEMIMAJOR_AXIS":"6917.915","ELEMENT_SET_NO":"999","DECAY_DATE":null,"TLE_LINE1":"1 49426U 21104U   22166.85924863 -.00000039  00000-0  15660-4 0  9990","LAUNCH_DATE":"2021-11-13","TIME_SYSTEM":"UTC","RCS_SIZE":"LARGE","SITE":"AFETR","RA_OF_ASC_NODE":"227.1052","INCLINATION":"53.2189","REV_AT_EPOCH":"3288","MEAN_MOTION_DOT":"-0.00000039","OBJECT_TYPE":"PAYLOAD","REF_FRAME":"TEME","GP_ID":"206239607","OBJECT_ID":"2021-104U","PERIAPSIS":"538.130","MEAN_ANOMALY":"325.9178","ARG_OF_PERICENTER":"34.1968","MEAN_ELEMENT_THEORY":"SGP4","NORAD_CAT_ID":"49426","EPHEMERIS_TYPE":"0","TLE_LINE2":"2 49426  53.2189 227.1052 0002385  34.1968 325.9178 15.08828772 32887","ECCENTRICITY":"0.00023850","MEAN_MOTION_DDOT":"0.0000000000000","MEAN_MOTION":"15.08828772","APOAPSIS":"541.430","FILE":"3496999","COUNTRY_CODE":"US","BSTAR":"0.00001566000000","PERIOD":"95.438","EPOCH":"2022-06-15T20:37:19.081632"},{"COUNTRY_CODE":"US","FILE":"3496794","APOAPSIS":"541.406","BSTAR":"-0.00007399400000","EPOCH":"2022-06-15T10:49:05.599200","PERIOD":"95.437","MEAN_MOTION":"15.08843550","TLE_LINE2":"2 49427  53.2188 228.9422 0002416  38.9226 321.1940 15.08843550 32832","ECCENTRICITY":"0.00024160","MEAN_MOTION_DDOT":"0.0000000000000","REF_FRAME":"TEME","OBJECT_TYPE":"PAYLOAD","PERIAPSIS":"538.063","OBJECT_ID":"2021-104V","GP_ID":"206210160","ARG_OF_PERICENTER":"38.9226","MEAN_ANOMALY":"321.1940","MEAN_ELEMENT_THEORY":"SGP4","EPHEMERIS_TYPE":"0","NORAD_CAT_ID":"49427","RA_OF_ASC_NODE":"228.9422","INCLINATION":"53.2188","REV_AT_EPOCH":"3283","MEAN_MOTION_DOT":"-0.00001466","RCS_SIZE":"LARGE","SITE":"AFETR","DECAY_DATE":null,"ELEMENT_SET_NO":"999","TLE_LINE1":"1 49427U 21104V   22166.45075925 -.00001466  00000-0 -73994-4 0  9993","TIME_SYSTEM":"UTC","LAUNCH_DATE":"2021-11-13","CLASSIFICATION_TYPE":"U","OBJECT_NAME":"STARLINK-3131","CENTER_NAME":"EARTH","SEMIMAJOR_AXIS":"6917.870"},{"RA_OF_ASC_NODE":"228.9939","INCLINATION":"53.2169","MEAN_MOTION_DOT":"-0.00000222","REV_AT_EPOCH":"3283","RCS_SIZE":"LARGE","SITE":"AFETR","DECAY_DATE":null,"ELEMENT_SET_NO":"999","TLE_LINE1":"1 49428U 21104W   22166.44068356 -.00000222  00000-0  41677-5 0  9995","LAUNCH_DATE":"2021-11-13","TIME_SYSTEM":"UTC","CLASSIFICATION_TYPE":"U","OBJECT_NAME":"STARLINK-3121","CENTER_NAME":"EARTH","SEMIMAJOR_AXIS":"6917.905","COUNTRY_CODE":"US","FILE":"3496794","APOAPSIS":"541.558","BSTAR":"0.00000416770000","EPOCH":"2022-06-15T10:34:35.059584","PERIOD":"95.438","MEAN_MOTION":"15.08831973","TLE_LINE2":"2 49428  53.2169 228.9939 0002584  36.4710 323.6458 15.08831973 32839","ECCENTRICITY":"0.00025840","MEAN_MOTION_DDOT":"0.0000000000000","REF_FRAME":"TEME","OBJECT_TYPE":"PAYLOAD","PERIAPSIS":"537.982","OBJECT_ID":"2021-104W","GP_ID":"206208420","ARG_OF_PERICENTER":"36.4710","MEAN_ANOMALY":"323.6458","MEAN_ELEMENT_THEORY":"SGP4","EPHEMERIS_TYPE":"0","NORAD_CAT_ID":"49428"},{"REV_AT_EPOCH":"3283","MEAN_MOTION_DOT":"-0.00001820","RA_OF_ASC_NODE":"228.9602","INCLINATION":"53.2177","SITE":"AFETR","RCS_SIZE":"LARGE","TLE_LINE1":"1 49430U 21104Y   22166.44708181 -.00001820  00000-0 -96235-4 0  9990","TIME_SYSTEM":"UTC","LAUNCH_DATE":"2021-11-13","DECAY_DATE":null,"ELEMENT_SET_NO":"999","CENTER_NAME":"EARTH","SEMIMAJOR_AXIS":"6917.885","CLASSIFICATION_TYPE":"U","OBJECT_NAME":"STARLINK-3138","BSTAR":"-0.00009623500000","EPOCH":"2022-06-15T10:43:47.868384","PERIOD":"95.438","COUNTRY_CODE":"US","FILE":"3496794","APOAPSIS":"541.578","MEAN_MOTION":"15.08838477","ECCENTRICITY":"0.00026430","MEAN_MOTION_DDOT":"0.0000000000000","TLE_LINE2":"2 49430  53.2177 228.9602 0002643  37.2585 322.8590 15.08838477 32837","MEAN_ANOMALY":"322.8590","ARG_OF_PERICENTER":"37.2585","MEAN_ELEMENT_THEORY":"SGP4","EPHEMERIS_TYPE":"0","NORAD_CAT_ID":"49430","REF_FRAME":"TEME","OBJECT_TYPE":"PAYLOAD","OBJECT_ID":"2021-104Y","PERIAPSIS":"537.922","GP_ID":"206209168"},{"TIME_SYSTEM":"UTC","LAUNCH_DATE":"2021-11-13","TLE_LINE1":"1 49431U 21104Z   22166.87123330 -.00000632  00000-0 -21584-4 0  9990","DECAY_DATE":null,"ELEMENT_SET_NO":"999","SEMIMAJOR_AXIS":"6917.882","CENTER_NAME":"EARTH","OBJECT_NAME":"STARLINK-3153","CLASSIFICATION_TYPE":"U","MEAN_MOTION_DOT":"-0.00000632","REV_AT_EPOCH":"3289","INCLINATION":"53.2174","RA_OF_ASC_NODE":"227.0445","SITE":"AFETR","RCS_SIZE":"LARGE","MEAN_MOTION_DDOT":"0.0000000000000","ECCENTRICITY":"0.00027500","TLE_LINE2":"2 49431  53.2174 227.0445 0002750  33.0551 327.0612 15.08839477 32895","EPHEMERIS_TYPE":"0","NORAD_CAT_ID":"49431","ARG_OF_PERICENTER":"33.0551","MEAN_ANOMALY":"327.0612","MEAN_ELEMENT_THEORY":"SGP4","OBJECT_ID":"2021-104Z","PERIAPSIS":"537.845","GP_ID":"206239108","REF_FRAME":"TEME","OBJECT_TYPE":"PAYLOAD","EPOCH":"2022-06-15T20:54:34.557120","PERIOD":"95.438","BSTAR":"-0.00002158400000","COUNTRY_CODE":"US","APOAPSIS":"541.649","FILE":"3496999","MEAN_MOTION":"15.08839477"}];
